#dP2024  5 13 12  0  0.00000000      96 __u+U IGS20 EXT  IAC
## 2314 129600.00000000   900.00000000 60443 0.5000000000000
+  120   C06C07C08C09C10C11C12C13C14C16C19C20C21C22C23C24C25
+        C26C27C28C29C30C32C33C34C35C36C37C38C39C40C41C42C43
+        C44C45C46E02E03E04E05E07E08E09E10E11E12E13E14E15E18
+        E19E21E24E25E26E27E30E31E33E34E36G01G02G03G04G05G06
+        G07G08G09G10G11G12G13G14G15G16G17G18G19G20G21G22G23
+        G24G25G26G27G28G29G30G31G32J02J03J04R01R02R03R04R05
+        R07R08R09R11R12R13R14R15R16R17R18R19R20R21R22R24R25
+        R26  0  0  0  0  0  0  0  0  0  0  0  0  0  0  0  0
++         0  0  0  0  0  0  0  0  0  0  0  0  0  0  0  0  0
++         0  0  0  0  0  0  0  0  0  0  0  0  0  0  0  0  0
++         0  0  0  0  0  0  0  0  0  0  0  0  0  0  0  0  0
++         0  0  0  0  0  0  0  0  0  0  0  0  0  0  0  0  0
++         0  0  0  0  0  0  0  0  0  0  0  0  0  0  0  0  0
++         0  0  0  0  0  0  0  0  0  0  0  0  0  0  0  0  0
++         0  0  0  0  0  0  0  0  0  0  0  0  0  0  0  0  0
++         0  0  0  0  0  0  0  0  0  0  0  0  0  0  0  0  0
%c M  cc GPS ccc cccc cccc cccc cccc ccccc ccccc ccccc ccccc
%c cc cc ccc ccc cccc cccc cccc cccc ccccc ccccc ccccc ccccc
%f  0.0000000  0.000000000  0.00000000000  0.000000000000000
%f  0.0000000  0.000000000  0.00000000000  0.000000000000000
%i    0    0    0    0      0      0      0      0         0
%i    0    0    0    0      0      0      0      0         0
/* IAC                                ULTRA-RAPID PREDICTION
/* S/V CLOCKS ARE ALIGNED TO GNSS TIME                      
/* G:C1WC2W R:C1PC2P E:C1XC5X C:C2IC6I J:C1CC2S             
/* PCV:IGS20_2290 OL/AL:FES2004  NONE     YN ORB:CoN CLK:CoN
*  2024 05 13 14  0  0.00000000
PC06  -6198.893158  40557.502875  10422.169743    418.367220
PC07  -7948.288694  26499.334709 -31736.187377   -733.649925
PC08 -20665.368768  28954.501143  22469.179019   -110.800217
PC09  -3112.367608  42281.537274   3593.767917   -895.220121
PC10   1522.231956  28555.851615 -30550.985268     19.570537
PC11  -7360.233356 -26606.423601   4180.191909    560.336553
PC12   6380.360642 -18969.139015  19479.236296   -245.057701
PC13 -13122.765514  29538.167237  27081.390449    435.355394
PC14  -7016.241594 -15761.482975 -21934.927061    872.969565
PC16  -8836.433682  38833.083449  14668.072603   -518.770219
PC19  16918.216052  13774.720213  17405.208872   -912.876428
PC20  -2256.614328  15434.786600  23151.369487   -459.847110
PC21  21917.790933  -7834.840967 -15351.745847   -966.959656
PC22  27554.528497   4103.896405   1246.026397     -6.325043
PC23 -18440.729911   -546.254242  20944.627669   -778.947683
PC24  10405.855138 -24438.973721   8580.623525    924.051484
PC25  -6206.861731 -17366.141025  20939.648280    398.759431
PC26  19950.381319 -17578.099570  -8539.692208   -290.691138
PC27 -12400.166688  11088.502292 -22430.892506    312.283344
PC28 -18184.250828  -6967.807119 -19987.923696    239.357877
PC29  14245.684722  23662.834353   3981.373517    280.861643
PC30    715.142769  24290.262211 -13750.731805    -76.308449
PC32 -21958.962398   7977.569452  15297.306821   -622.199420
PC33 -16987.130158 -13692.129763 -17410.244970   -965.223775
PC34  -1963.903870 -24894.073548  12419.394970    432.798715
PC35  18547.562239   6617.442489  19768.197609    364.153030
PC36   5754.934899  17537.589281 -20904.079845     80.251089
PC37 -20366.767815  16951.795965   8728.385326   -966.032464
PC38 -24736.898164  30318.528494  15601.892919    154.860465
PC39  -9317.489045  36658.508711  18949.725312     -8.325311
PC40 -11823.844833  20356.712481 -34999.133154    -69.954459
PC41 -27477.267739  -4490.716001  -2033.799532   -946.834854
PC42   4124.402621 -15195.646925 -22993.197714   -442.911936
PC43 -13764.254964 -24066.150885  -3096.959157     71.515407
PC44  12189.565285 -11416.594504  22333.415621    472.060357
PC45  18301.598157    642.308479 -21061.315820    -85.661968
PC46  -9918.107106  24351.831692  -9295.570502   -147.858030
PE02 -16524.527291 -10493.373123  22194.339171    127.043566
PE03 -21467.763361 -20283.550248  -2111.692872   -113.482276
PE04  24208.191746   6076.878632 -15893.815207   -396.044814
PE05  -6176.792460 -22272.553894 -18487.186619   4747.297598
PE07 -13166.389601  10953.434923  24154.094067   -119.910916
PE08 -24369.670246  -6884.104100  15347.044542   -270.073396
PE09  13126.884567 -10782.364530 -24231.476063   -441.407220
PE10  16208.553224 -12916.009272  21122.939318   -624.499572
PE11  13345.093546 -22515.544247  13792.742550   2872.601999
PE12  16520.706132  -2338.439355  24438.070835  -1036.471143
PE13 -13528.156486  22093.123584 -14333.098510    -21.581855
PE14  12080.605593  20214.501538  -8289.680562     35.060412
PE15 -16391.797335   1747.430709 -24585.516661   -102.658391
PE18 -24449.439386 -20360.304198  -1903.376996    106.203875
PE19  20237.828799  21207.313044   4100.579999    -71.244991
PE21  -3959.828229  18198.593433 -23009.679386   -594.303388
PE24  23199.884341 -15386.686875  10066.815747   -760.135966
PE25   4421.982357 -18260.919719  22874.958666      4.434191
PE26  -2403.277246  29134.432508   4662.643222    453.171661
PE27 -22943.650889  15566.040700 -10360.379237   -348.359050
PE30 -28166.699604   3606.358816   8329.948886   -295.981435
PE31  28175.265993  -3795.645816  -8235.880314    -23.409113
PE33   9317.411427  19764.877348  19965.421593     11.602821
PE34  -9642.951612 -19301.487073 -20273.778604   -111.031091
PE36   2812.791574 -29171.210932  -4111.567058   -226.547250
PG01  12109.517666  11444.358625 -21124.117483    274.296888
PG02  13960.280643 -12841.033129  18952.893226   -436.927605
PG03  22511.065470 -12803.818820  -5746.124381    361.241105
PG04  14698.743409  -6665.162087 -21100.859858    360.163563
PG05 -24651.083351   4033.738962  -9336.191362   -172.558321
PG06  -6183.557972 -21205.483321 -14603.711661    275.204961
PG07   5311.634598 -25644.550766  -1923.420769   -127.984384
PG08  21385.486701   1958.370318  15788.876578    175.980740
PG09   2388.575689 -16498.657839 -20745.345172    194.855503
PG10   5857.388116  13597.246543  22261.353138    -22.470969
PG11 -13016.733514  -9382.370848 -21152.022165   -661.120751
PG12 -23956.834583  10661.764885  -4321.457101   -504.990726
PG13 -21243.769301 -11671.192474  10921.663285    650.176488
PG14  -1477.446785 -15801.915147  21307.182940    399.738344
PG15 -21479.285711    612.509563  15238.938899    158.590251
PG16  24027.033890   1664.305485 -12021.579961   -292.703577
PG17  -9267.957747 -21005.154014  13633.674468    706.624441
PG18  -5544.463847  25813.176629  -1629.013251   -609.957349
PG19 -16483.521073 -20581.720666   4434.802042    481.487239
PG20 -19488.470672  -2793.671284 -17698.562942    376.732153
PG21  15130.908015  -6431.261152  21090.026384    121.861053
PG22  -9514.916181 -12896.200273  21558.132503    -13.038891
PG23  -7500.784830  16989.632180  18934.413285    224.417370
PG24 -14522.631449  10980.529497  18782.743481   -469.214699
PG25 -17133.266454  16363.678469 -12071.635094    495.644010
PG26  15213.986804   9140.456044 -20006.909188    153.458643
PG27  22850.333064  12175.496264   6559.592269    -23.775939
PG28   5919.317991  22804.335173 -12276.357282   -242.296204
PG29  -6173.269747  14345.737293 -21520.739522   -598.581160
PG30  -2207.566511 -25091.580752   8126.758888   -391.023113
PG31  11622.998007  13869.472849 -19521.821960   -227.836015
PG32  12971.281458  20360.421175  11510.568410   -618.271201
PJ02 -34542.612289  18037.604217 -11479.830850     -0.139080
PJ03 -20644.788813  29772.340000 -16971.586405      0.192398
PJ04 -28046.163802  26847.645380  22422.256807     50.334653
PR01 -13400.070290   6515.464466  20714.975696     85.250216
PR02   4510.980435  12184.691966  22012.021474    -22.935531
PR03  20177.361909  11437.115872  10730.062389    100.085054
PR04  24307.421918   4737.733722  -6099.334058    236.224054
PR05  15557.116200  -4577.913662 -19680.302347    131.442856
PR07 -20658.080902 -11179.273989  -9845.936768     82.301829
PR08 -24294.517636  -4288.946559   6492.464828    -75.418629
PR09   6806.894096 -18262.246262  16428.213205    186.337742
PR11 -17707.909802   5395.327544  17570.601356     24.862987
PR12 -18537.893131  17513.620963    -27.669251     40.093401
PR13  -9311.337911  18740.939452 -14596.430717    -47.322507
PR14   7635.620918   8107.468306 -22934.496466     26.489513
PR15  18399.314144  -6495.326486 -16403.896114     79.854189
PR16  18506.246825 -17525.620300   -162.456607     25.554663
PR17  10225.368205  19827.783999  12334.729997     86.419455
PR18  11355.954283   4908.118720  22324.588680    141.853432
PR19   7872.226317 -10905.233185  21668.008678   -276.463812
PR20  -1678.208840 -24715.528559   5993.657599   -112.721995
PR21  -9984.111436 -20054.799902 -12226.954998   -100.497615
PR22 -11497.939212  -3821.418077 -22422.744452    112.226039
PR24   2929.628566  24755.345646  -5367.212439    -55.643088
PR25  -9660.269977 -20059.937723 -12464.437323    -35.569587
PR26 -24520.125270  -4823.565722   5210.059611    -19.888373
EOF
